[{"OBJECT_NAME":"STARLINK-4126","OBJECT_ID":"2022-062AP","EPOCH":"2026-03-09T06:00:48.406464","MEAN_MOTION":15.08814909,"ECCENTRICITY":0.0001258,"INCLINATION":53.2186,"RA_OF_ASC_NODE":26.0897,"ARG_OF_PERICENTER":71.3014,"MEAN_ANOMALY":288.8114,"EPHEMERIS_TYPE":0,"CLASSIFICATION_TYPE":"U","NORAD_CAT_ID":52867,"ELEMENT_SET_NO":999,"REV_AT_EPOCH":20586,"BSTAR":0.00014609846,"MEAN_MOTION_DOT":2.037e-5,"MEAN_MOTION_DDOT":0},{"OBJECT_NAME":"CZ-6A DEB","OBJECT_ID":"2022-151CD","EPOCH":"2026-03-09T04:34:52.178880","MEAN_MOTION":15.04926808,"ECCENTRICITY":0.00436133,"INCLINATION":98.6267,"RA_OF_ASC_NODE":153.8749,"ARG_OF_PERICENTER":159.2339,"MEAN_ANOMALY":201.0669,"EPHEMERIS_TYPE":0,"CLASSIFICATION_TYPE":"U","NORAD_CAT_ID":54334,"ELEMENT_SET_NO":999,"REV_AT_EPOCH":17669,"BSTAR":0.0057373504,"MEAN_MOTION_DOT":0.00083812,"MEAN_MOTION_DDOT":0}]
